norad_id,name,regime,epoch,line1,line2,inclination,eccentricity,mean_motion,raan,arg_pericenter,mean_anomaly
43015,MIRATA,LEO,19055.74268665,1 43015U 17073C   19055.74268665 +.00000577 +00000-0 +50498-4 0 0001,2 43015 097.7179 341.4247 0256440 168.7354 191.9753 14.7870927906845,97.7179,0.025644,14.78709279,341.4247,168.7354,191.9753
43015,MIRATA,LEO,19056.21637720,1 43015U 17073C   19056.21637720  .00000550  00000-0  48359-4 0  3986,2 43015  97.7179 341.8796 0256484 167.1914 193.5982 14.78709752 68529,97.7179,0.0256484,14.78709752,341.8796,167.1914,193.5982
43015,MIRATA,LEO,19056.75773734,1 43015U 17073C   19056.75773734 +.00000555 +00000-0 +48760-4 0 0001,2 43015 097.7179 342.3995 0256535 165.4289 195.4502 14.7871048906860,97.7179,0.0256535,14.78710489,342.3995,165.4289,195.4502
43015,MIRATA,LEO,19057.36676690,1 43015U 17073C   19057.36676690  .00000625  00000-0  54195-4 0  3991,2 43015  97.7179 342.9845 0256587 163.4466 197.5323 14.78711680 68695,97.7179,0.0256587,14.7871168,342.9845,163.4466,197.5323
43015,MIRATA,LEO,19057.77278671,1 43015U 17073C   19057.77278671 +.00000595 +00000-0 +51843-4 0 0001,2 43015 097.7179 343.3744 0256629 162.1258 198.9191 14.7871191406875,97.7179,0.0256629,14.78711914,343.3744,162.1258,198.9191
43015,MIRATA,LEO,19058.78783483,1 43015U 17073C   19058.78783483  .00000634  00000-0  54838-4 0  4004,2 43015  97.7179 344.3492 0256696 158.8250 202.3823 14.78713201 68904,97.7179,0.0256696,14.78713201,344.3492,158.825,202.3823
43015,MIRATA,LEO,19059.73521126,1 43015U 17073C   19059.73521126 +.00000721 +00000-0 +61559-4 0 0001,2 43015 097.7180 345.2591 0256760 155.7460 205.6095 14.7871484706904,97.718,0.025676,14.78714847,345.2591,155.746,205.6095
43015,MIRATA,LEO,19060.34423806,1 43015U 17073C   19060.34423806  .00000785  00000-0  66494-4 0  4018,2 43015  97.7180 345.8440 0256804 153.7657 207.6832 14.78716040 69139,97.718,0.0256804,14.7871604,345.844,153.7657,207.6832
43015,MIRATA,LEO,19060.75025544,1 43015U 17073C   19060.75025544 +.00000796 +00000-0 +67340-4 0 0001,2 43015 097.7180 346.2340 0256821 152.4457 209.0645 14.7871672306919,97.718,0.0256821,14.78716723,346.234,152.4457,209.0645
43015,MIRATA,LEO,19061.35928096,1 43015U 17073C   19061.35928096  .00000756  00000-0  64198-4 0  4029,2 43015  97.7181 346.8189 0256879 150.4662 211.1346 14.78717437 69280,97.7181,0.0256879,14.78717437,346.8189,150.4662,211.1346
43015,MIRATA,LEO,19061.83296709,1 43015U 17073C   19061.83296709 +.00000720 +00000-0 +61382-4 0 0001,2 43015 097.7181 347.2737 0256904 148.9258 212.7442 14.7871793906935,97.7181,0.0256904,14.78717939,347.2737,148.9258,212.7442
43015,MIRATA,LEO,19062.44199114,1 43015U 17073C   19062.44199114  .00000743  00000-0  63163-4 0  4039,2 43015  97.7182 347.8587 0256945 146.9466 214.8106 14.78719019 69440,97.7182,0.0256945,14.78719019,347.8587,146.9466,214.8106
43015,MIRATA,LEO,19062.84800708,1 43015U 17073C   19062.84800708 +.00000769 +00000-0 +65186-4 0 0001,2 43015 097.7182 348.2486 0256966 145.6283 216.1858 14.7871970606950,97.7182,0.0256966,14.78719706,348.2486,145.6283,216.1858
43015,MIRATA,LEO,19063.72770640,1 43015U 17073C   19063.72770640  .00000766  00000-0  64920-4 0  4048,2 43015  97.7183 349.0934 0257017 142.7711 219.1632 14.78721125 69633,97.7183,0.0257017,14.78721125,349.0934,142.7711,219.1632
43015,MIRATA,LEO,19064.74274197,1 43015U 17073C   19064.74274197  .00000719  00000-0  61201-4 0  4055,2 43015  97.7184 350.0683 0257071 139.4750 222.5921 14.78722639 69789,97.7184,0.0257071,14.78722639,350.0683,139.475,222.5921
43015,MIRATA,LEO,19065.75777494,1 43015U 17073C   19065.75777494  .00000733  00000-0  62242-4 0  4068,2 43015  97.7184 351.0432 0257129 136.1786 226.0146 14.78724564 69933,97.7184,0.0257129,14.78724564,351.0432,136.1786,226.0146
43015,MIRATA,LEO,19066.29912481,1 43015U 17073C   19066.29912481 +.00000753 +00000-0 +63810-4 0 0001,2 43015 097.7185 351.5631 0257166 134.4221 227.8356 14.7872562807001,97.7185,0.0257166,14.78725628,351.5631,134.4221,227.8356
43015,MIRATA,LEO,19066.77280539,1 43015U 17073C   19066.77280539  .00000742  00000-0  62907-4 0  4079,2 43015  97.7185 352.0180 0257192 132.8859 229.4264 14.78726343 70082,97.7185,0.0257192,14.78726343,352.018,132.8859,229.4264
43015,MIRATA,LEO,19067.78783362,1 43015U 17073C   19067.78783362  .00000744  00000-0  63007-4 0  4088,2 43015  97.7184 352.9929 0257265 129.5931 232.8308 14.78727878 70234,97.7184,0.0257265,14.78727878,352.9929,129.5931,232.8308
43015,MIRATA,LEO,19068.32918120,1 43015U 17073C   19068.32918120 +.00000758 +00000-0 +64098-4 0 0001,2 43015 097.7184 353.5128 0257291 127.8375 234.6426 14.7872868607031,97.7184,0.0257291,14.78728686,353.5128,127.8375,234.6426
43015,MIRATA,LEO,19068.73519115,1 43015U 17073C   19068.73519115 +.00000776 +00000-0 +65481-4 0 0001,2 43015 097.7184 353.9027 0257301 126.5200 236.0007 14.7872943307037,97.7184,0.0257301,14.78729433,353.9027,126.52,236.0007
43015,MIRATA,LEO,19069.20886874,1 43015U 17073C   19069.20886874  .00000802  00000-0  67521-4 0  4090,2 43015  97.7184 354.3577 0257324 124.9844 237.5821 14.78730403 70440,97.7184,0.0257324,14.78730403,354.3577,124.9844,237.5821
43015,MIRATA,LEO,19069.75021435,1 43015U 17073C   19069.75021435 +.00000840 +00000-0 +70429-4 0 0001,2 43015 097.7183 354.8775 0257348 123.2265 239.3901 14.7873138907052,97.7183,0.0257348,14.78731389,354.8775,123.2265,239.3901
43015,MIRATA,LEO,19070.35922707,1 43015U 17073C   19070.35922707  .00000672  00000-0  57406-4 0  4102,2 43015  97.7183 355.4624 0257401 121.2539 241.4164 14.78731450 70617,97.7183,0.0257401,14.7873145,355.4624,121.2539,241.4164
43015,MIRATA,LEO,19070.62989914,1 43015U 17073C   19070.62989914 +.00000655 +00000-0 +56072-4 0 0001,2 43015 097.7183 355.7223 0257406 120.3758 242.3172 14.7873173507065,97.7183,0.0257406,14.78731735,355.7223,120.3758,242.3172
43015,MIRATA,LEO,19070.76523504,1 43015U 17073C   19070.76523504 +.00000657 +00000-0 +56235-4 0 0001,2 43015 097.7183 355.8523 0257409 119.9370 242.7672 14.7873197107067,97.7183,0.0257409,14.78731971,355.8523,119.937,242.7672
43015,MIRATA,LEO,19071.78025297,1 43015U 17073C   19071.78025297  .00000654  00000-0  55971-4 0  4114,2 43015  97.7182 356.8271 0257448 116.6457 246.1371 14.78733435 70827,97.7182,0.0257448,14.78733435,356.8271,116.6457,246.1371
43015,MIRATA,LEO,19072.72760026,1 43015U 17073C   19072.72760026 +.00000834 +00000-0 +69868-4 0 0001,2 43015 097.7182 357.7369 0257475 113.5762 249.2717 14.7873585007096,97.7182,0.0257475,14.7873585,357.7369,113.5762,249.2717
43015,MIRATA,LEO,19073.33660819,1 43015U 17073C   19073.33660819  .00000812  00000-0  68182-4 0  4127,2 43015  97.7183 358.3218 0257494 111.6026 251.2830 14.78736648 71056,97.7183,0.0257494,14.78736648,358.3218,111.6026,251.283
43015,MIRATA,LEO,19073.74261275,1 43015U 17073C   19073.74261275 +.00000815 +00000-0 +68440-4 0 0001,2 43015 097.7183 358.7117 0257504 110.2873 252.6216 14.7873733607111,97.7183,0.0257504,14.78737336,358.7117,110.2873,252.6216
43015,MIRATA,LEO,19074.35161813,1 43015U 17073C   19074.35161813  .00000947  00000-0  78604-4 0  4130,2 43015  97.7183 359.2966 0257522 108.3130 254.6280 14.78739245 71206,97.7183,0.0257522,14.78739245,359.2966,108.313,254.628
43015,MIRATA,LEO,19074.75762153,1 43015U 17073C   19074.75762153 +.00000893 +00000-0 +74432-4 0 0001,2 43015 097.7183 359.6865 0257530 106.9973 255.9631 14.7873963407126,97.7183,0.025753,14.78739634,359.6865,106.9973,255.9631
43015,MIRATA,LEO,19075.36662565,1 43015U 17073C   19075.36662565  .00000888  00000-0  74016-4 0  4140,2 43015  97.7183   0.2713 0257554 105.0235 257.9634 14.78740636 71355,97.7183,0.0257554,14.78740636,0.2713,105.0235,257.9634
43015,MIRATA,LEO,19075.84029437,1 43015U 17073C   19075.84029437 +.00000935 +00000-0 +77657-4 0 0001,2 43015 097.7183 000.7262 0257551 103.4835 259.5214 14.7874181607142,97.7183,0.0257551,14.78741816,0.7262,103.4835,259.5214
43015,MIRATA,LEO,19076.51696238,1 43015U 17073C   19076.51696238  .00001086  00000-0  89324-4 0  4152,2 43015  97.7183   1.3761 0257567 101.2914 261.7357 14.78744039 71521,97.7183,0.0257567,14.78744039,1.3761,101.2914,261.7357
43015,MIRATA,LEO,19076.85529626,1 43015U 17073C   19076.85529626 +.00001034 +00000-0 +85353-4 0 0001,2 43015 097.7183 001.7011 0257574 100.1969 262.8397 14.7874438907157,97.7183,0.0257574,14.78744389,1.7011,100.1969,262.8397
43015,MIRATA,LEO,19077.32896262,1 43015U 17073C   19077.32896262 +.00001114 +00000-0 +91484-4 0 0001,2 43015 097.7184 002.1560 0257581 098.6638 264.3843 14.7874582507164,97.7184,0.0257581,14.78745825,2.156,98.6638,264.3843
43015,MIRATA,LEO,19077.73496175,1 43015U 17073C   19077.73496175  .00001124  00000-0  92300-4 0  4167,2 43015  97.7184   2.5459 0257580  97.3476 265.7085 14.78746789 71708,97.7184,0.025758,14.78746789,2.5459,97.3476,265.7085
43015,MIRATA,LEO,19078.20862696,1 43015U 17073C   19078.20862696 +.00001123 +00000-0 +92209-4 0 0001,2 43015 097.7184 003.0008 0257586 095.8106 267.2531 14.7874780107177,97.7184,0.0257586,14.78747801,3.0008,95.8106,267.2531
43015,MIRATA,LEO,19078.74995751,1 43015U 17073C   19078.74995751  .00001094  00000-0  89920-4 0  4174,2 43015  97.7184   3.5206 0257585  94.0563 269.0132 14.78748874 71858,97.7184,0.0257585,14.78748874,3.5206,94.0563,269.0132
43015,MIRATA,LEO,19079.76494958,1 43015U 17073C   19079.76494958  .00001082  00000-0  89002-4 0  4189,2 43015  97.7185   4.4954 0257587  90.7672 272.3060 14.78751168 72000,97.7185,0.0257587,14.78751168,4.4954,90.7672,272.306
43015,MIRATA,LEO,19080.77993832,1 43015U 17073C   19080.77993832 +.00001132 +00000-0 +92881-4 0 0419,2 43015 097.7185 005.4702 0257589 087.4754 275.5917 14.7875370907215,97.7185,0.0257589,14.78753709,5.4702,87.4754,275.5917
43015,MIRATA,LEO,19081.72725813,1 43015U 17073C   19081.72725813 +.00001247 +00000-0 +10179-3 0 0001,2 43015 097.7185 006.3800 0257589 084.4091 278.6436 14.7875641607229,97.7185,0.0257589,14.78756416,6.38,84.4091,278.6436
